CCSDS_OMM_VERS,COMMENT,CREATION_DATE,ORIGINATOR,OBJECT_NAME,OBJECT_ID,CENTER_NAME,REF_FRAME,TIME_SYSTEM,MEAN_ELEMENT_THEORY,EPOCH,MEAN_MOTION,ECCENTRICITY,INCLINATION,RA_OF_ASC_NODE,ARG_OF_PERICENTER,MEAN_ANOMALY,EPHEMERIS_TYPE,CLASSIFICATION_TYPE,NORAD_CAT_ID,ELEMENT_SET_NO,REV_AT_EPOCH,BSTAR,MEAN_MOTION_DOT,MEAN_MOTION_DDOT,SEMIMAJOR_AXIS,PERIOD,APOAPSIS,PERIAPSIS,OBJECT_TYPE,RCS_SIZE,COUNTRY_CODE,LAUNCH_DATE,SITE,DECAY_DATE,FILE,GP_ID,TLE_LINE0,TLE_LINE1,TLE_LINE2
"2.0","GENERATED VIA SPACE-TRACK.ORG API","2020-07-23T20:44:19","18 SPCS","IRIDIUM 176","2019-002B","EARTH","TEME","UTC","SGP4","2020-07-23T10:43:24.193056","14.72253871","0.00025350","86.6139","174.0924","82.4876","277.6629","0","U","43923","999","8222","0.00001220700000","0.00000102","0.0000000000000","7032.019","97.809","655.666","652.101","PAYLOAD","LARGE","US","2019-01-11","AFWTR","","2790028","158068376","0 IRIDIUM 176","1 43923U 19002B   20205.44680779 +.00000102 +00000-0 +12207-4 0  9996","2 43923 086.6139 174.0924 0002535 082.4876 277.6629 14.72253871082226"
"2.0","GENERATED VIA SPACE-TRACK.ORG API","2020-07-23T06:36:10","18 SPCS","SL-18 DEB","1993-014BJ","EARTH","TEME","UTC","SGP4","2020-07-23T02:34:27.984576","14.81069274","0.00692680","75.7394","132.0154","130.8801","229.8416","0","U","35359","999","68822","0.00029391000000","0.00002357","0.0000000000000","7004.087","97.227","674.468","577.437","DEBRIS","SMALL","CIS","1993-03-25","PKMTR","","2789904","158047055","0 SL-18 DEB","1 35359U 93014BJ  20205.10726834  .00002357  00000-0  29391-3 0  9996","2 35359  75.7394 132.0154 0069268 130.8801 229.8416 14.81069274688220"
"2.0","GENERATED VIA SPACE-TRACK.ORG API","2020-07-23T04:17:58","18 SPCS","IRIDIUM 176","2019-002B","EARTH","TEME","UTC","SGP4","2020-07-22T21:40:24.950784","14.72253767","0.00025450","86.6138","174.3194","82.5862","277.5645","0","U","43923","999","8214","0.00001128400000","0.00000096","0.0000000000000","7032.019","97.809","655.674","652.094","PAYLOAD","LARGE","US","2019-01-11","AFWTR","","2789750","158039684","0 IRIDIUM 176","1 43923U 19002B   20204.90306656 +.00000096 +00000-0 +11284-4 0  9991","2 43923 086.6138 174.3194 0002545 082.5862 277.5645 14.72253767082146"
"2.0","GENERATED VIA SPACE-TRACK.ORG API","2020-07-22T19:01:38","18 SPCS","IRIDIUM 176","2019-002B","EARTH","TEME","UTC","SGP4","2020-07-22T10:15:18.108288","14.72253711","0.00025470","86.6137","174.5179","82.6978","277.4528","0","U","43923","999","8207","0.00001112800000","0.00000095","0.0000000000000","7032.019","97.809","655.675","652.093","PAYLOAD","LARGE","US","2019-01-11","AFWTR","","2789600","158019383","0 IRIDIUM 176","1 43923U 19002B   20204.42729292 +.00000095 +00000-0 +11128-4 0  9999","2 43923 086.6137 174.5179 0002547 082.6978 277.4528 14.72253711082071"
"2.0","GENERATED VIA SPACE-TRACK.ORG API","2020-07-22T06:26:10","18 SPCS","IRIDIUM 176","2019-002B","EARTH","TEME","UTC","SGP4","2020-07-22T03:43:48.484992","14.72253666","0.00025530","86.6138","174.6314","82.7122","277.4386","0","U","43923","999","8203","0.00001122400000","0.00000095","0.0000000000000","7032.019","97.809","655.679","652.089","PAYLOAD","LARGE","US","2019-01-11","AFWTR","","2789260","157992502","0 IRIDIUM 176","1 43923U 19002B   20204.15542228  .00000095  00000-0  11224-4 0  9998","2 43923  86.6138 174.6314 0002553  82.7122 277.4386 14.72253666 82030"
"2.0","GENERATED VIA SPACE-TRACK.ORG API","2020-07-22T01:29:23","18 SPCS","IRIDIUM 176","2019-002B","EARTH","TEME","UTC","SGP4","2020-07-21T16:18:41.640768","14.72253613","0.00025610","86.6137","174.8300","82.8550","277.2958","0","U","43923","999","8196","0.00001102500000","0.00000094","0.0000000000000","7032.019","97.809","655.685","652.083","PAYLOAD","LARGE","US","2019-01-11","AFWTR","","2789023","157986641","0 IRIDIUM 176","1 43923U 19002B   20203.67964862 +.00000094 +00000-0 +11025-4 0  9994","2 43923 086.6137 174.8300 0002561 082.8550 277.2958 14.72253613081967"
"2.0","GENERATED VIA SPACE-TRACK.ORG API","2020-07-22T01:29:23","18 SPCS","SL-18 DEB","1993-014BJ","EARTH","TEME","UTC","SGP4","2020-07-21T11:39:54.236160","14.81062167","0.00691230","75.7395","134.8800","135.0446","225.6367","0","U","35359","999","68732","0.00027608000000","0.00002212","0.0000000000000","7004.110","97.227","674.389","577.560","DEBRIS","SMALL","CIS","1993-03-25","PKMTR","","2789023","157982295","0 SL-18 DEB","1 35359U 93014BJ  20203.48604440 +.00002212 +00000-0 +27608-3 0  9992","2 35359 075.7395 134.8800 0069123 135.0446 225.6367 14.81062167687324"
"2.0","GENERATED VIA SPACE-TRACK.ORG API","2020-07-21T17:23:58","18 SPCS","IRIDIUM 176","2019-002B","EARTH","TEME","UTC","SGP4","2020-07-21T09:47:12.015744","14.72253564","0.00025600","86.6137","174.9435","82.8813","277.2695","0","U","43923","999","8192","0.00001042700000","0.00000090","0.0000000000000","7032.020","97.809","655.685","652.084","PAYLOAD","LARGE","US","2019-01-11","AFWTR","","2788883","157963332","0 IRIDIUM 176","1 43923U 19002B   20203.40777796 +.00000090 +00000-0 +10427-4 0  9994","2 43923 086.6137 174.9435 0002560 082.8813 277.2695 14.72253564081927"
"2.0","GENERATED VIA SPACE-TRACK.ORG API","2020-07-21T17:23:58","18 SPCS","SL-18 DEB","1993-014BJ","EARTH","TEME","UTC","SGP4","2020-07-21T03:33:32.119488","14.81060735","0.00691030","75.7395","135.4768","135.9088","224.7638","0","U","35359","999","68727","0.00027697000000","0.00002219","0.0000000000000","7004.114","97.227","674.380","577.579","DEBRIS","SMALL","CIS","1993-03-25","PKMTR","","2788883","157959535","0 SL-18 DEB","1 35359U 93014BJ  20203.14828842 +.00002219 +00000-0 +27697-3 0  9994","2 35359 075.7395 135.4768 0069103 135.9088 224.7638 14.81060735687277"
"2.0","GENERATED VIA SPACE-TRACK.ORG API","2020-07-21T03:35:23","18 SPCS","IRIDIUM 176","2019-002B","EARTH","TEME","UTC","SGP4","2020-07-20T22:22:05.172384","14.72253477","0.00025690","86.6136","175.1421","82.9537","277.1972","0","U","43923","999","8185","0.00001019700000","0.00000089","0.0000000000000","7032.020","97.809","655.691","652.078","PAYLOAD","LARGE","US","2019-01-11","AFWTR","","2788583","157917745","0 IRIDIUM 176","1 43923U 19002B   20202.93200431 +.00000089 +00000-0 +10197-4 0  9990","2 43923 086.6136 175.1421 0002569 082.9537 277.1972 14.72253477081859"
"2.0","GENERATED VIA SPACE-TRACK.ORG API","2020-07-20T22:26:09","18 SPCS","IRIDIUM 176","2019-002B","EARTH","TEME","UTC","SGP4","2020-07-20T20:44:12.763104","14.72253490","0.00025650","86.6136","175.1704","82.9548","277.1961","0","U","43923","999","8184","0.00001082300000","0.00000093","0.0000000000000","7032.020","97.809","655.688","652.081","PAYLOAD","LARGE","US","2019-01-11","AFWTR","","2788426","157894548","0 IRIDIUM 176","1 43923U 19002B   20202.86403661  .00000093  00000-0  10823-4 0  9993","2 43923  86.6136 175.1704 0002565  82.9548 277.1961 14.72253490 81843"
"2.0","GENERATED VIA SPACE-TRACK.ORG API","2020-07-20T22:46:10","18 SPCS","SL-18 DEB","1993-014BJ","EARTH","TEME","UTC","SGP4","2020-07-20T12:58:04.232064","14.81058260","0.00690500","75.7395","136.5510","137.4763","223.1801","0","U","35359","999","68784","0.00028168000000","0.00002257","0.0000000000000","7004.122","97.227","674.351","577.624","DEBRIS","SMALL","CIS","1993-03-25","PKMTR","","2788527","157896902","0 SL-18 DEB","1 35359U 93014BJ  20202.54032676  .00002257  00000-0  28168-3 0  9995","2 35359  75.7395 136.5510 0069050 137.4763 223.1801 14.81058260687840"
"2.0","GENERATED VIA SPACE-TRACK.ORG API","2020-07-20T18:30:20","18 SPCS","IRIDIUM 176","2019-002B","EARTH","TEME","UTC","SGP4","2020-07-20T10:56:58.321248","14.72253423","0.00025660","86.6136","175.3406","83.0608","277.0900","0","U","43923","999","8178","0.00001056100000","0.00000091","0.0000000000000","7032.020","97.809","655.689","652.081","PAYLOAD","LARGE","US","2019-01-11","AFWTR","","2788378","157893528","0 IRIDIUM 176","1 43923U 19002B   20202.45623057 +.00000091 +00000-0 +10561-4 0  9998","2 43923 086.6136 175.3406 0002566 083.0608 277.0900 14.72253423081785"
"2.0","GENERATED VIA SPACE-TRACK.ORG API","2020-07-20T02:00:18","18 SPCS","IRIDIUM 176","2019-002B","EARTH","TEME","UTC","SGP4","2020-07-19T21:53:59.065152","14.72253372","0.00025680","86.6136","175.5676","83.2262","276.9247","0","U","43923","999","8170","0.00001171500000","0.00000099","0.0000000000000","7032.020","97.809","655.691","652.079","PAYLOAD","LARGE","US","2019-01-11","AFWTR","","2787997","157863050","0 IRIDIUM 176","1 43923U 19002B   20201.91248918 +.00000099 +00000-0 +11715-4 0  9997","2 43923 086.6136 175.5676 0002568 083.2262 276.9247 14.72253372081703"
"2.0","GENERATED VIA SPACE-TRACK.ORG API","2020-07-19T22:16:10","18 SPCS","IRIDIUM 176","2019-002B","EARTH","TEME","UTC","SGP4","2020-07-19T15:22:29.434080","14.72253343","0.00025690","86.6135","175.6811","83.3306","276.8203","0","U","43923","999","8166","0.00001207300000","0.00000101","0.0000000000000","7032.020","97.809","655.692","652.079","PAYLOAD","LARGE","US","2019-01-11","AFWTR","","2787866","157841271","0 IRIDIUM 176","1 43923U 19002B   20201.64061845  .00000101  00000-0  12073-4 0  9991","2 43923  86.6135 175.6811 0002569  83.3306 276.8203 14.72253343 81669"
"2.0","GENERATED VIA SPACE-TRACK.ORG API","2020-07-19T14:56:09","18 SPCS","SL-18 DEB","1993-014BJ","EARTH","TEME","UTC","SGP4","2020-07-19T12:38:57.545088","14.81053877","0.00689720","75.7394","138.3414","140.0900","220.5388","0","U","35359","999","68769","0.00028219000000","0.00002261","0.0000000000000","7004.136","97.228","674.310","577.692","DEBRIS","SMALL","CIS","1993-03-25","PKMTR","","2787770","157798687","0 SL-18 DEB","1 35359U 93014BJ  20201.52705492  .00002261  00000-0  28219-3 0  9997","2 35359  75.7394 138.3414 0068972 140.0900 220.5388 14.81053877687690"
